CYGNUS NG-23            
1 65616U 25208A   26012.17690827  .00009276  00000+0  17471-3 0  9998
2 65616  51.6333 351.7881 0007723   8.9804 351.1321 15.49250518   228
DRAGONFLY               
1 65729U 98067XH  26011.93926156  .00404790  00000+0  14348-2 0  9995
2 65729  51.6222 339.6309 0008200  93.5596 266.6346 15.87364482 17930
1998-067XK              
1 65731U 98067XK  26012.30382385  .00142032  00000+0  99524-3 0  9998
2 65731  51.6283 341.3779 0004899  67.9564 292.1955 15.73245680 17945
RSP-03                  
1 65732U 98067XL  26012.29146769  .00227400  00000+0  12089-2 0  9994
2 65732  51.6258 339.7681 0005874  76.5873 283.5782 15.79251665 17975
GHS-01                  
1 65733U 98067XM  26012.28866065  .00850554  34570-3  17145-2 0  9995
2 65733  51.6230 335.9548 0008042 108.3735 251.8150 15.99020203 18025
YOTSUBA-KULOVER         
1 65941U 98067XN  26012.17057774  .00094416  00000+0  95561-3 0  9996
2 65941  51.6291 346.4989 0004024  91.8849 268.2607 15.64497148 14615
BOTAN                   
1 65942U 98067XP  26012.14639147  .00168828  00000+0  12904-2 0  9992
2 65942  51.6268 344.8269 0004776  88.7079 271.4466 15.71102759 14637
E-KAGAKU-1              
1 65943U 98067XQ  26012.17046665  .00094386  00000+0  95560-3 0  9990
2 65943  51.6310 346.5034 0002565  96.7546 263.3741 15.64494393 14611
HRC MONOBLOCK CAMERA    
1 66052U 98067XR  26012.17212980  .00039508  00000+0  55086-3 0  9991
2 66052  51.6309 349.5094 0001174 352.4201   7.6773 15.56507432 13573
HTV-X1                  
1 66174U 25241A   26012.17690827  .00009276  00000+0  17471-3 0  9995
2 66174  51.6333 351.7881 0007723   8.9804 351.1321 15.49250518   510
SZ-21 MODULE            
1 66515U 25246C   26011.88279060  .00031001  00000+0  31694-3 0  9992
2 66515  41.4741 191.9223 0001604 141.8798 218.2156 15.64350755  9164
SHENZHOU-22             
1 66645U 25272A   26012.12737156  .00021726  00000+0  25939-3 0  9996
2 66645  41.4654 192.0458 0011500 268.5283  91.4238 15.60438906267647
