CCSDS_OMM_VERS = 2.0
CREATION_DATE  = 
ORIGINATOR     = 

OBJECT_NAME    = CYGNUS NG-23
OBJECT_ID      = 2025-208A
CENTER_NAME    = EARTH
REF_FRAME      = TEME
TIME_SYSTEM    = UTC
MEAN_ELEMENT_THEORY = SGP/SGP4

EPOCH          = 2026-01-12T04:14:44.874528
MEAN_MOTION    = 15.49250518
ECCENTRICITY   = .00077234
INCLINATION    = 51.6333
RA_OF_ASC_NODE = 351.7881
ARG_OF_PERICENTER = 8.9804
MEAN_ANOMALY   = 351.1321

EPHEMERIS_TYPE = 0
CLASSIFICATION_TYPE = U
NORAD_CAT_ID   = 65616
ELEMENT_SET_NO = 999
REV_AT_EPOCH   = 22
BSTAR          = .17470929E-3
MEAN_MOTION_DOT = .9276E-4
MEAN_MOTION_DDOT = 0

CCSDS_OMM_VERS = 2.0
CREATION_DATE  = 
ORIGINATOR     = 

OBJECT_NAME    = DRAGONFLY
OBJECT_ID      = 1998-067XH
CENTER_NAME    = EARTH
REF_FRAME      = TEME
TIME_SYSTEM    = UTC
MEAN_ELEMENT_THEORY = SGP/SGP4

EPOCH          = 2026-01-11T22:32:32.198784
MEAN_MOTION    = 15.87364482
ECCENTRICITY   = .00082
INCLINATION    = 51.6222
RA_OF_ASC_NODE = 339.6309
ARG_OF_PERICENTER = 93.5596
MEAN_ANOMALY   = 266.6346

EPHEMERIS_TYPE = 0
CLASSIFICATION_TYPE = U
NORAD_CAT_ID   = 65729
ELEMENT_SET_NO = 999
REV_AT_EPOCH   = 1793
BSTAR          = .14347524E-2
MEAN_MOTION_DOT = .40479E-2
MEAN_MOTION_DDOT = 0

CCSDS_OMM_VERS = 2.0
CREATION_DATE  = 
ORIGINATOR     = 

OBJECT_NAME    = 1998-067XK
OBJECT_ID      = 1998-067XK
CENTER_NAME    = EARTH
REF_FRAME      = TEME
TIME_SYSTEM    = UTC
MEAN_ELEMENT_THEORY = SGP/SGP4

EPOCH          = 2026-01-12T07:17:30.380640
MEAN_MOTION    = 15.73245680
ECCENTRICITY   = .00048998
INCLINATION    = 51.6283
RA_OF_ASC_NODE = 341.3779
ARG_OF_PERICENTER = 67.9564
MEAN_ANOMALY   = 292.1955

EPHEMERIS_TYPE = 0
CLASSIFICATION_TYPE = U
NORAD_CAT_ID   = 65731
ELEMENT_SET_NO = 999
REV_AT_EPOCH   = 1794
BSTAR          = .99524331E-3
MEAN_MOTION_DOT = .142032E-2
MEAN_MOTION_DDOT = 0

CCSDS_OMM_VERS = 2.0
CREATION_DATE  = 
ORIGINATOR     = 

OBJECT_NAME    = RSP-03
OBJECT_ID      = 1998-067XL
CENTER_NAME    = EARTH
REF_FRAME      = TEME
TIME_SYSTEM    = UTC
MEAN_ELEMENT_THEORY = SGP/SGP4

EPOCH          = 2026-01-12T06:59:42.808416
MEAN_MOTION    = 15.79251665
ECCENTRICITY   = .00058744
INCLINATION    = 51.6258
RA_OF_ASC_NODE = 339.7681
ARG_OF_PERICENTER = 76.5873
MEAN_ANOMALY   = 283.5782

EPHEMERIS_TYPE = 0
CLASSIFICATION_TYPE = U
NORAD_CAT_ID   = 65732
ELEMENT_SET_NO = 999
REV_AT_EPOCH   = 1797
BSTAR          = .12088666E-2
MEAN_MOTION_DOT = .2274E-2
MEAN_MOTION_DDOT = 0

CCSDS_OMM_VERS = 2.0
CREATION_DATE  = 
ORIGINATOR     = 

OBJECT_NAME    = GHS-01
OBJECT_ID      = 1998-067XM
CENTER_NAME    = EARTH
REF_FRAME      = TEME
TIME_SYSTEM    = UTC
MEAN_ELEMENT_THEORY = SGP/SGP4

EPOCH          = 2026-01-12T06:55:40.280160
MEAN_MOTION    = 15.99020203
ECCENTRICITY   = .00080429
INCLINATION    = 51.6230
RA_OF_ASC_NODE = 335.9548
ARG_OF_PERICENTER = 108.3735
MEAN_ANOMALY   = 251.8150

EPHEMERIS_TYPE = 0
CLASSIFICATION_TYPE = U
NORAD_CAT_ID   = 65733
ELEMENT_SET_NO = 999
REV_AT_EPOCH   = 1802
BSTAR          = .17145128E-2
MEAN_MOTION_DOT = .850554E-2
MEAN_MOTION_DDOT = .34569908E-3

CCSDS_OMM_VERS = 2.0
CREATION_DATE  = 
ORIGINATOR     = 

OBJECT_NAME    = YOTSUBA-KULOVER
OBJECT_ID      = 1998-067XN
CENTER_NAME    = EARTH
REF_FRAME      = TEME
TIME_SYSTEM    = UTC
MEAN_ELEMENT_THEORY = SGP/SGP4

EPOCH          = 2026-01-12T04:05:37.916736
MEAN_MOTION    = 15.64497148
ECCENTRICITY   = .00040248
INCLINATION    = 51.6291
RA_OF_ASC_NODE = 346.4989
ARG_OF_PERICENTER = 91.8849
MEAN_ANOMALY   = 268.2607

EPHEMERIS_TYPE = 0
CLASSIFICATION_TYPE = U
NORAD_CAT_ID   = 65941
ELEMENT_SET_NO = 999
REV_AT_EPOCH   = 1461
BSTAR          = .95560738E-3
MEAN_MOTION_DOT = .94416E-3
MEAN_MOTION_DDOT = 0

CCSDS_OMM_VERS = 2.0
CREATION_DATE  = 
ORIGINATOR     = 

OBJECT_NAME    = BOTAN
OBJECT_ID      = 1998-067XP
CENTER_NAME    = EARTH
REF_FRAME      = TEME
TIME_SYSTEM    = UTC
MEAN_ELEMENT_THEORY = SGP/SGP4

EPOCH          = 2026-01-12T03:30:48.223008
MEAN_MOTION    = 15.71102759
ECCENTRICITY   = .00047765
INCLINATION    = 51.6268
RA_OF_ASC_NODE = 344.8269
ARG_OF_PERICENTER = 88.7079
MEAN_ANOMALY   = 271.4466

EPHEMERIS_TYPE = 0
CLASSIFICATION_TYPE = U
NORAD_CAT_ID   = 65942
ELEMENT_SET_NO = 999
REV_AT_EPOCH   = 1463
BSTAR          = .12903819E-2
MEAN_MOTION_DOT = .168828E-2
MEAN_MOTION_DDOT = 0

CCSDS_OMM_VERS = 2.0
CREATION_DATE  = 
ORIGINATOR     = 

OBJECT_NAME    = E-KAGAKU-1
OBJECT_ID      = 1998-067XQ
CENTER_NAME    = EARTH
REF_FRAME      = TEME
TIME_SYSTEM    = UTC
MEAN_ELEMENT_THEORY = SGP/SGP4

EPOCH          = 2026-01-12T04:05:28.318560
MEAN_MOTION    = 15.64494393
ECCENTRICITY   = .00025657
INCLINATION    = 51.6310
RA_OF_ASC_NODE = 346.5034
ARG_OF_PERICENTER = 96.7546
MEAN_ANOMALY   = 263.3741

EPHEMERIS_TYPE = 0
CLASSIFICATION_TYPE = U
NORAD_CAT_ID   = 65943
ELEMENT_SET_NO = 999
REV_AT_EPOCH   = 1461
BSTAR          = .95560006E-3
MEAN_MOTION_DOT = .94386E-3
MEAN_MOTION_DDOT = 0

CCSDS_OMM_VERS = 2.0
CREATION_DATE  = 
ORIGINATOR     = 

OBJECT_NAME    = HRC MONOBLOCK CAMERA
OBJECT_ID      = 1998-067XR
CENTER_NAME    = EARTH
REF_FRAME      = TEME
TIME_SYSTEM    = UTC
MEAN_ELEMENT_THEORY = SGP/SGP4

EPOCH          = 2026-01-12T04:07:52.014720
MEAN_MOTION    = 15.56507432
ECCENTRICITY   = .00011744
INCLINATION    = 51.6309
RA_OF_ASC_NODE = 349.5094
ARG_OF_PERICENTER = 352.4201
MEAN_ANOMALY   = 7.6773

EPHEMERIS_TYPE = 0
CLASSIFICATION_TYPE = U
NORAD_CAT_ID   = 66052
ELEMENT_SET_NO = 999
REV_AT_EPOCH   = 1357
BSTAR          = .55085917E-3
MEAN_MOTION_DOT = .39508E-3
MEAN_MOTION_DDOT = 0

CCSDS_OMM_VERS = 2.0
CREATION_DATE  = 
ORIGINATOR     = 

OBJECT_NAME    = HTV-X1
OBJECT_ID      = 2025-241A
CENTER_NAME    = EARTH
REF_FRAME      = TEME
TIME_SYSTEM    = UTC
MEAN_ELEMENT_THEORY = SGP/SGP4

EPOCH          = 2026-01-12T04:14:44.874528
MEAN_MOTION    = 15.49250518
ECCENTRICITY   = .00077234
INCLINATION    = 51.6333
RA_OF_ASC_NODE = 351.7881
ARG_OF_PERICENTER = 8.9804
MEAN_ANOMALY   = 351.1321

EPHEMERIS_TYPE = 0
CLASSIFICATION_TYPE = U
NORAD_CAT_ID   = 66174
ELEMENT_SET_NO = 999
REV_AT_EPOCH   = 51
BSTAR          = .17470929E-3
MEAN_MOTION_DOT = .9276E-4
MEAN_MOTION_DDOT = 0

CCSDS_OMM_VERS = 2.0
CREATION_DATE  = 
ORIGINATOR     = 

OBJECT_NAME    = SZ-21 MODULE
OBJECT_ID      = 2025-246C
CENTER_NAME    = EARTH
REF_FRAME      = TEME
TIME_SYSTEM    = UTC
MEAN_ELEMENT_THEORY = SGP/SGP4

EPOCH          = 2026-01-11T21:11:13.107840
MEAN_MOTION    = 15.64350755
ECCENTRICITY   = .00016049
INCLINATION    = 41.4741
RA_OF_ASC_NODE = 191.9223
ARG_OF_PERICENTER = 141.8798
MEAN_ANOMALY   = 218.2156

EPHEMERIS_TYPE = 0
CLASSIFICATION_TYPE = U
NORAD_CAT_ID   = 66515
ELEMENT_SET_NO = 999
REV_AT_EPOCH   = 916
BSTAR          = .31693738E-3
MEAN_MOTION_DOT = .31001E-3
MEAN_MOTION_DDOT = 0

CCSDS_OMM_VERS = 2.0
CREATION_DATE  = 
ORIGINATOR     = 

OBJECT_NAME    = SHENZHOU-22
OBJECT_ID      = 2025-272A
CENTER_NAME    = EARTH
REF_FRAME      = TEME
TIME_SYSTEM    = UTC
MEAN_ELEMENT_THEORY = SGP/SGP4

EPOCH          = 2026-01-12T03:03:24.902784
MEAN_MOTION    = 15.60438906
ECCENTRICITY   = .00115001
INCLINATION    = 41.4654
RA_OF_ASC_NODE = 192.0458
ARG_OF_PERICENTER = 268.5283
MEAN_ANOMALY   = 91.4238

EPHEMERIS_TYPE = 0
CLASSIFICATION_TYPE = U
NORAD_CAT_ID   = 66645
ELEMENT_SET_NO = 999
REV_AT_EPOCH   = 26764
BSTAR          = .25939425E-3
MEAN_MOTION_DOT = .21726E-3
MEAN_MOTION_DDOT = 0

